[{"OBJECT_NAME":"STARLINK-3107","OBJECT_ID":"2021-082AT","EPOCH":"2026-03-09T21:59:27.140640","MEAN_MOTION":15.10504087,"ECCENTRICITY":0.00073375,"INCLINATION":69.9932,"RA_OF_ASC_NODE":287.3824,"ARG_OF_PERICENTER":250.2407,"MEAN_ANOMALY":109.7967,"EPHEMERIS_TYPE":0,"CLASSIFICATION_TYPE":"U","NORAD_CAT_ID":49171,"ELEMENT_SET_NO":999,"REV_AT_EPOCH":24733,"BSTAR":0.001517345,"MEAN_MOTION_DOT":0.00025048,"MEAN_MOTION_DDOT":0},{"OBJECT_NAME":"STARLINK-4160","OBJECT_ID":"2022-076AW","EPOCH":"2026-03-09T08:10:38.791200","MEAN_MOTION":15.08838552,"ECCENTRICITY":0.00013735,"INCLINATION":53.2171,"RA_OF_ASC_NODE":85.8814,"ARG_OF_PERICENTER":83.5258,"MEAN_ANOMALY":276.5891,"EPHEMERIS_TYPE":0,"CLASSIFICATION_TYPE":"U","NORAD_CAT_ID":53030,"ELEMENT_SET_NO":999,"REV_AT_EPOCH":20293,"BSTAR":-0.00010985404,"MEAN_MOTION_DOT":-2.036e-5,"MEAN_MOTION_DDOT":0}]
